start=new Date('2022-12-27T00:00:00.000Z').valueOf();
sats=[{"MEAN_MOTION_DOT":"0.00001281","TIME_SYSTEM":"UTC","CENTER_NAME":"EARTH","MEAN_MOTION":"15.08846412","NORAD_CAT_ID":"51469","MEAN_ELEMENT_THEORY":"SGP4","SEMIMAJOR_AXIS":"6917.861","OBJECT_NAME":"STARLINK-3182","CLASSIFICATION_TYPE":"U","REV_AT_EPOCH":"5035","EPOCH":"2022-12-26T18:11:08.060352","APOAPSIS":"542.019","ARG_OF_PERICENTER":"58.7542","MEAN_MOTION_DDOT":"0.0000000000000","PERIOD":"95.437","OBJECT_TYPE":"PAYLOAD","INCLINATION":"53.2172","DECAY_DATE":null,"TLE_LINE2":"2 51469  53.2172 126.6693 0003315  58.7542 301.3775 15.08846412 50351","ECCENTRICITY":"0.00033150","REF_FRAME":"TEME","OBJECT_ID":"2022-010P","FILE":"3723236","TLE_LINE1":"1 51469U 22010P   22360.75773218  .00001281  00000-0  98566-4 0  9993","MEAN_ANOMALY":"301.3775","SITE":"AFETR","RA_OF_ASC_NODE":"126.6693","BSTAR":"0.00009856600000","ELEMENT_SET_NO":"999","EPHEMERIS_TYPE":"0","RCS_SIZE":"LARGE","LAUNCH_DATE":"2022-02-03","PERIAPSIS":"537.433","GP_ID":"221526303","COUNTRY_CODE":"US"},{"OBJECT_TYPE":"PAYLOAD","PERIOD":"95.260","REF_FRAME":"TEME","OBJECT_ID":"2022-010R","ECCENTRICITY":"0.00026870","TLE_LINE2":"2 51471  53.2175 121.4732 0002687 184.4111 175.6859 15.11646606 50413","TLE_LINE1":"1 51471U 22010R   22360.62380379  .00019055  00000-0  11223-2 0  9995","MEAN_ANOMALY":"175.6859","FILE":"3723236","INCLINATION":"53.2175","DECAY_DATE":null,"RA_OF_ASC_NODE":"121.4732","ELEMENT_SET_NO":"999","BSTAR":"0.00112230000000","SITE":"AFETR","GP_ID":"221525051","COUNTRY_CODE":"US","PERIAPSIS":"529.323","LAUNCH_DATE":"2022-02-03","EPHEMERIS_TYPE":"0","RCS_SIZE":"LARGE","NORAD_CAT_ID":"51471","MEAN_MOTION":"15.11646606","MEAN_MOTION_DOT":"0.00019055","TIME_SYSTEM":"UTC","CENTER_NAME":"EARTH","MEAN_ELEMENT_THEORY":"SGP4","SEMIMAJOR_AXIS":"6909.315","REV_AT_EPOCH":"5041","CLASSIFICATION_TYPE":"U","OBJECT_NAME":"STARLINK-3165","APOAPSIS":"533.037","MEAN_MOTION_DDOT":"0.0000000000000","ARG_OF_PERICENTER":"184.4111","EPOCH":"2022-12-26T14:58:16.647456"},{"MEAN_MOTION_DDOT":"0.0000000000000","ARG_OF_PERICENTER":"63.2062","APOAPSIS":"541.616","EPOCH":"2022-12-26T17:44:38.166432","REV_AT_EPOCH":"5035","CLASSIFICATION_TYPE":"U","OBJECT_NAME":"STARLINK-3415","MEAN_ELEMENT_THEORY":"SGP4","SEMIMAJOR_AXIS":"6917.867","NORAD_CAT_ID":"51472","MEAN_MOTION":"15.08844536","CENTER_NAME":"EARTH","TIME_SYSTEM":"UTC","MEAN_MOTION_DOT":"0.00002531","COUNTRY_CODE":"US","GP_ID":"221525301","LAUNCH_DATE":"2022-02-03","PERIAPSIS":"537.847","EPHEMERIS_TYPE":"0","RCS_SIZE":"LARGE","ELEMENT_SET_NO":"999","BSTAR":"0.00017704000000","RA_OF_ASC_NODE":"126.7558","SITE":"AFETR","TLE_LINE1":"1 51472U 22010S   22360.73933063  .00002531  00000-0  17704-3 0  9994","FILE":"3723236","MEAN_ANOMALY":"296.9208","REF_FRAME":"TEME","OBJECT_ID":"2022-010S","TLE_LINE2":"2 51472  53.2148 126.7558 0002724  63.2062 296.9208 15.08844536 50355","ECCENTRICITY":"0.00027240","DECAY_DATE":null,"INCLINATION":"53.2148","OBJECT_TYPE":"PAYLOAD","PERIOD":"95.437"},{"TLE_LINE2":"2 51714  53.2157 176.1418 0002297  48.4685 311.6504 15.08843598 46973","ECCENTRICITY":"0.00022970","OBJECT_ID":"2022-016A","REF_FRAME":"TEME","MEAN_ANOMALY":"311.6504","TLE_LINE1":"1 51714U 22016A   22360.87457604  .00000787  00000-0  67579-4 0  9993","FILE":"3723236","INCLINATION":"53.2157","DECAY_DATE":null,"OBJECT_TYPE":"PAYLOAD","PERIOD":"95.437","GP_ID":"221526062","COUNTRY_CODE":"US","RCS_SIZE":"LARGE","EPHEMERIS_TYPE":"0","PERIAPSIS":"538.145","LAUNCH_DATE":"2022-02-21","RA_OF_ASC_NODE":"176.1418","BSTAR":"0.00006757900000","ELEMENT_SET_NO":"999","SITE":"AFETR","MEAN_ELEMENT_THEORY":"SGP4","SEMIMAJOR_AXIS":"6917.869","MEAN_MOTION":"15.08843598","NORAD_CAT_ID":"51714","TIME_SYSTEM":"UTC","MEAN_MOTION_DOT":"0.00000787","CENTER_NAME":"EARTH","APOAPSIS":"541.323","ARG_OF_PERICENTER":"48.4685","MEAN_MOTION_DDOT":"0.0000000000000","EPOCH":"2022-12-26T20:59:23.369856","CLASSIFICATION_TYPE":"U","REV_AT_EPOCH":"4697","OBJECT_NAME":"STARLINK-3528"},{"EPOCH":"2022-12-26T19:08:06.888480","ARG_OF_PERICENTER":"44.6216","MEAN_MOTION_DDOT":"0.0000000000000","APOAPSIS":"541.654","OBJECT_NAME":"STARLINK-3533","CLASSIFICATION_TYPE":"U","REV_AT_EPOCH":"4809","MEAN_ELEMENT_THEORY":"SGP4","SEMIMAJOR_AXIS":"6917.909","CENTER_NAME":"EARTH","MEAN_MOTION_DOT":"-0.00000242","TIME_SYSTEM":"UTC","MEAN_MOTION":"15.08830758","NORAD_CAT_ID":"51715","RCS_SIZE":"LARGE","EPHEMERIS_TYPE":"0","PERIAPSIS":"537.893","LAUNCH_DATE":"2022-02-21","COUNTRY_CODE":"US","GP_ID":"221525813","SITE":"AFETR","ELEMENT_SET_NO":"999","BSTAR":"0.00000291390000","RA_OF_ASC_NODE":"176.4935","DECAY_DATE":null,"INCLINATION":"53.2146","TLE_LINE1":"1 51715U 22016B   22360.79730195 -.00000242  00000-0  29139-5 0  9992","MEAN_ANOMALY":"315.4995","FILE":"3723236","ECCENTRICITY":"0.00027180","TLE_LINE2":"2 51715  53.2146 176.4935 0002718  44.6216 315.4995 15.08830758 48090","REF_FRAME":"TEME","OBJECT_ID":"2022-016B","PERIOD":"95.438","OBJECT_TYPE":"PAYLOAD"},{"SEMIMAJOR_AXIS":"6917.878","MEAN_ELEMENT_THEORY":"SGP4","MEAN_MOTION":"15.08840655","NORAD_CAT_ID":"51716","MEAN_MOTION_DOT":"0.00001786","TIME_SYSTEM":"UTC","CENTER_NAME":"EARTH","APOAPSIS":"541.852","ARG_OF_PERICENTER":"43.1852","MEAN_MOTION_DDOT":"0.0000000000000","EPOCH":"2022-12-26T20:54:04.946976","CLASSIFICATION_TYPE":"U","REV_AT_EPOCH":"4697","OBJECT_NAME":"STARLINK-3543","TLE_LINE2":"2 51716  53.2146 176.1578 0003048  43.1852 316.9379 15.08840655 46972","ECCENTRICITY":"0.00030480","REF_FRAME":"TEME","OBJECT_ID":"2022-016C","TLE_LINE1":"1 51716U 22016C   22360.87089059  .00001786  00000-0  13032-3 0  9994","FILE":"3723236","MEAN_ANOMALY":"316.9379","INCLINATION":"53.2146","DECAY_DATE":null,"OBJECT_TYPE":"PAYLOAD","PERIOD":"95.438","GP_ID":"221524562","COUNTRY_CODE":"US","RCS_SIZE":"LARGE","EPHEMERIS_TYPE":"0","LAUNCH_DATE":"2022-02-21","PERIAPSIS":"537.635","RA_OF_ASC_NODE":"176.1578","ELEMENT_SET_NO":"999","BSTAR":"0.00013032000000","SITE":"AFETR"},{"OBJECT_NAME":"STARLINK-3445","REV_AT_EPOCH":"4697","CLASSIFICATION_TYPE":"U","EPOCH":"2022-12-26T20:48:47.569536","MEAN_MOTION_DDOT":"0.0000000000000","ARG_OF_PERICENTER":"43.2822","APOAPSIS":"541.787","CENTER_NAME":"EARTH","MEAN_MOTION_DOT":"-0.00000302","TIME_SYSTEM":"UTC","NORAD_CAT_ID":"51717","MEAN_MOTION":"15.08841219","MEAN_ELEMENT_THEORY":"SGP4","SEMIMAJOR_AXIS":"6917.877","SITE":"AFETR","BSTAR":"-0.00000082253000","ELEMENT_SET_NO":"999","RA_OF_ASC_NODE":"176.1740","LAUNCH_DATE":"2022-02-21","PERIAPSIS":"537.696","EPHEMERIS_TYPE":"0","RCS_SIZE":"LARGE","COUNTRY_CODE":"US","GP_ID":"221524811","PERIOD":"95.437","OBJECT_TYPE":"PAYLOAD","DECAY_DATE":null,"INCLINATION":"53.2151","TLE_LINE1":"1 51717U 22016D   22360.86721724 -.00000302  00000-0 -82253-6 0  9995","MEAN_ANOMALY":"316.8402","FILE":"3723236","OBJECT_ID":"2022-016D","REF_FRAME":"TEME","TLE_LINE2":"2 51717  53.2151 176.1740 0002957  43.2822 316.8402 15.08841219 46979","ECCENTRICITY":"0.00029570"},{"CENTER_NAME":"EARTH","MEAN_MOTION_DOT":"0.00000020","TIME_SYSTEM":"UTC","NORAD_CAT_ID":"51718","MEAN_MOTION":"15.08836837","MEAN_ELEMENT_THEORY":"SGP4","SEMIMAJOR_AXIS":"6917.890","OBJECT_NAME":"STARLINK-3546","REV_AT_EPOCH":"4809","CLASSIFICATION_TYPE":"U","EPOCH":"2022-12-26T20:27:35.861760","MEAN_MOTION_DDOT":"0.0000000000000","ARG_OF_PERICENTER":"38.7217","APOAPSIS":"542.140","PERIOD":"95.438","OBJECT_TYPE":"PAYLOAD","DECAY_DATE":null,"INCLINATION":"53.2155","MEAN_ANOMALY":"321.4021","TLE_LINE1":"1 51718U 22016E   22360.85249840  .00000020  00000-0  19437-4 0  9996","FILE":"3723236","REF_FRAME":"TEME","OBJECT_ID":"2022-016E","TLE_LINE2":"2 51718  53.2155 176.2262 0003447  38.7217 321.4021 15.08836837 48090","ECCENTRICITY":"0.00034470","SITE":"AFETR","BSTAR":"0.00001943700000","ELEMENT_SET_NO":"999","RA_OF_ASC_NODE":"176.2262","LAUNCH_DATE":"2022-02-21","PERIAPSIS":"537.370","EPHEMERIS_TYPE":"0","RCS_SIZE":"LARGE","COUNTRY_CODE":"US","GP_ID":"221525563"},{"MEAN_ELEMENT_THEORY":"SGP4","SEMIMAJOR_AXIS":"6917.894","CENTER_NAME":"EARTH","TIME_SYSTEM":"UTC","MEAN_MOTION_DOT":"0.00002194","NORAD_CAT_ID":"51719","MEAN_MOTION":"15.08835588","EPOCH":"2022-12-26T20:38:11.568768","MEAN_MOTION_DDOT":"0.0000000000000","ARG_OF_PERICENTER":"52.2487","APOAPSIS":"541.735","OBJECT_NAME":"STARLINK-3540","REV_AT_EPOCH":"4697","CLASSIFICATION_TYPE":"U","DECAY_DATE":null,"INCLINATION":"53.2159","TLE_LINE1":"1 51719U 22016F   22360.85985612  .00002194  00000-0  15594-3 0  9994","FILE":"3723236","MEAN_ANOMALY":"307.8764","REF_FRAME":"TEME","OBJECT_ID":"2022-016F","ECCENTRICITY":"0.00028560","TLE_LINE2":"2 51719  53.2159 176.2136 0002856  52.2487 307.8764 15.08835588 46977","PERIOD":"95.438","OBJECT_TYPE":"PAYLOAD","PERIAPSIS":"537.783","LAUNCH_DATE":"2022-02-21","EPHEMERIS_TYPE":"0","RCS_SIZE":"LARGE","COUNTRY_CODE":"US","GP_ID":"221526313","SITE":"AFETR","ELEMENT_SET_NO":"999","BSTAR":"0.00015594000000","RA_OF_ASC_NODE":"176.2136"},{"PERIOD":"95.437","OBJECT_TYPE":"PAYLOAD","DECAY_DATE":null,"INCLINATION":"53.2169","TLE_LINE1":"1 51720U 22016G   22360.84881429  .00000793  00000-0  67943-4 0  9995","FILE":"3723236","MEAN_ANOMALY":"322.9428","REF_FRAME":"TEME","OBJECT_ID":"2022-016G","TLE_LINE2":"2 51720  53.2169 176.2494 0002953  37.1768 322.9428 15.08841593 46966","ECCENTRICITY":"0.00029530","SITE":"AFETR","ELEMENT_SET_NO":"999","BSTAR":"0.00006794300000","RA_OF_ASC_NODE":"176.2494","LAUNCH_DATE":"2022-02-21","PERIAPSIS":"537.698","RCS_SIZE":"LARGE","EPHEMERIS_TYPE":"0","COUNTRY_CODE":"US","GP_ID":"221525061","CENTER_NAME":"EARTH","TIME_SYSTEM":"UTC","MEAN_MOTION_DOT":"0.00000793","NORAD_CAT_ID":"51720","MEAN_MOTION":"15.08841593","SEMIMAJOR_AXIS":"6917.876","MEAN_ELEMENT_THEORY":"SGP4","OBJECT_NAME":"STARLINK-3526","REV_AT_EPOCH":"4696","CLASSIFICATION_TYPE":"U","EPOCH":"2022-12-26T20:22:17.554656","MEAN_MOTION_DDOT":"0.0000000000000","ARG_OF_PERICENTER":"37.1768","APOAPSIS":"541.783"}];
